COSMOS 2413 (712)       
1 28509U 04053B   16104.13090388 -.00000022  00000-0  00000+0 0  9994
2 28509  63.1277 192.4166 0005347 172.2858  92.3507  2.13101820 87912
COSMOS 2419 (714)       
1 28915U 05050A   16103.98456965  .00000026  00000-0  00000+0 0  9995
2 28915  65.2948  80.3646 0017377 345.5741 168.4450  2.13115588 80169
COSMOS 2425 (716)       
1 29670U 06062A   16104.14781637 -.00000029  00000-0  10000-3 0  9993
2 29670  65.6599 319.3403 0022742 350.3037 348.8551  2.13105022 72365
COSMOS 2426 (717)       
1 29671U 06062B   16104.52223505 -.00000028  00000-0  10000-3 0  9990
2 29671  65.6773 319.4084 0015806 158.4693 329.3132  2.13103055 72389
COSMOS 2424 (715)       
1 29672U 06062C   16103.60711003 -.00000031  00000-0  10000-3 0  9998
2 29672  65.6617 319.3685 0015342 156.9026 165.2964  2.13102204 72353
COSMOS 2433 (720)       
1 32275U 07052A   16103.65273888  .00000024  00000-0  10000-3 0  9991
2 32275  65.3098  80.1448 0005115 282.5107 228.8032  2.13104925 65872
COSMOS 2432 (719)       
1 32276U 07052B   16103.65110041  .00000024  00000-0  10000-3 0  9993
2 32276  65.3219  80.2095 0014076 330.2408 133.7589  2.13104273 65875
COSMOS 2434 (721)       
1 32393U 07065A   16104.10166438 -.00000029  00000-0  00000+0 0  9990
2 32393  65.2793 318.6957 0005113  85.5342 302.6989  2.13102870 64595
COSMOS 2436 (723)       
1 32395U 07065C   16104.42001972 -.00000028  00000-0  10000-3 0  9992
2 32395  65.2922 318.7266 0018560 359.0248   5.4474  2.13102913 64538
COSMOS 2443 (725)       
1 33379U 08046B   16104.06693499  .00000025  00000-0  10000-3 0  9992
2 33379  65.2386  79.5540 0016726 193.8170 181.1385  2.13101470 58759
COSMOS 2456 (730)       
1 36111U 09070A   16103.46805317 -.00000011  00000-0  00000-0 0  9996
2 36111  64.1832 198.3149 0004096 318.7429 112.6465  2.13102909 49247
COSMOS 2457 (733)       
1 36112U 09070B   16104.15291458 -.00000021  00000-0  00000+0 0  9999
2 36112  64.1650 198.2199 0006835 164.1748 203.1849  2.13101555 49260
COSMOS 2458 (734)       
1 36113U 09070C   16104.40367057 -.00000024  00000-0  10000-3 0  9995
2 36113  64.1710 198.2165 0001229  22.3805 224.7620  2.13102144 49263
COSMOS 2459 (731)       
1 36400U 10007A   16103.52508624  .00000022  00000-0  10000-3 0  9992
2 36400  65.2175  79.3085 0030057 348.7931 290.4952  2.13102389 47598
COSMOS 2461 (735)       
1 36401U 10007B   16104.14054411  .00000024  00000-0  10000-3 0  9994
2 36401  65.2108  79.2696 0004811  45.4618 256.5316  2.13102416 47604
COSMOS 2460 (732)       
1 36402U 10007C   16104.36323998  .00000025  00000-0  10000-3 0  9999
2 36402  65.2013  79.2396 0002781 301.0981 213.7343  2.13101970 47615
COSMOS 2466 (738)       
1 37137U 10041A   16103.74748909 -.00000032  00000-0  10000-3 0  9996
2 37137  64.8614 318.8417 0018560 152.3171 189.5931  2.13111009 43678
COSMOS 2465 (737)       
1 37138U 10041B   16103.80822328 -.00000032  00000-0  00000+0 0  9997
2 37138  64.8789 318.9120 0033472 166.7433  42.2455  2.13101058 43672
COSMOS 2464 (736)       
1 37139U 10041C   16103.74811284 -.00000032  00000-0  00000-0 0  9991
2 37139  64.8860 318.9090 0024665  14.7725 329.9091  2.13102657 43676
COSMOS 2471 (701K)      
1 37372U 11009A   16103.86933535  .00000023  00000-0  00000+0 0  9990
2 37372  65.1984  79.2061 0008857 247.0694  21.2401  2.13102902 39879
COSMOS 2474 (742)       
1 37829U 11055A   16103.63654100 -.00000013  00000-0  00000+0 0  9991
2 37829  64.5080 198.6946 0007620 251.0231 171.3289  2.13101961 35245
COSMOS 2476 (744)       
1 37867U 11064A   16103.85544314 -.00000017  00000-0  00000+0 0  9996
2 37867  64.4874 198.7697 0016665 246.0257  30.0694  2.13102115 34592
COSMOS 2477 (745)       
1 37868U 11064B   16104.01952778 -.00000019  00000-0  00000+0 0  9995
2 37868  64.4958 198.8042 0014630 247.4763 333.8414  2.13101869 34553
COSMOS 2475 (743)       
1 37869U 11064C   16103.65658704 -.00000014  00000-0  00000+0 0  9992
2 37869  64.5033 198.8037 0020122 275.6990 343.2783  2.13101968 34555
COSMOS 2478 (746)       
1 37938U 11071A   16103.89589728  .00000024  00000-0  00000+0 0  9992
2 37938  65.2258  79.4249 0014597 246.0756 158.8644  2.13088564 34179
COSMOS 2485 (747)       
1 39155U 13019A   16104.09617792 -.00000020  00000-0  00000+0 0  9992
2 39155  64.6571 198.6981 0017039 240.7379 265.1963  2.13102078 23076
COSMOS 2492 (754)       
1 39620U 14012A   16103.73463620  .00000023  00000-0  10000-3 0  9999
2 39620  65.0901  79.2579 0017766 328.0921 293.4981  2.13103561 16010
COSMOS 2500 (755)       
1 40001U 14032A   16104.40383794  .00000025  00000-0  00000+0 0  9991
2 40001  65.0303  79.2646 0006439 231.8598  46.9695  2.13103030 14249
COSMOS 2501 (702K)      
1 40315U 14075A   16103.75049538 -.00000035  00000-0  00000+0 0  9990
2 40315  64.6504 320.3855 0015929 237.1496  61.9878  2.13101541 10631
COSMOS 2514 (751)       
1 41330U 16008A   16104.04853378  .00000024  00000-0  00000+0 0  9991
2 41330  64.8303  79.5297 0009888 231.9640 313.1557  2.13103604  1404
